[{"OBJECT_NAME":"COSMOS 2251 DEB","OBJECT_ID":"1993-036BDU","EPOCH":"2026-04-01T20:48:29.261376","MEAN_MOTION":14.56247522,"ECCENTRICITY":0.00115541,"INCLINATION":74.0421,"RA_OF_ASC_NODE":305.8857,"ARG_OF_PERICENTER":5.7544,"MEAN_ANOMALY":354.375,"EPHEMERIS_TYPE":0,"CLASSIFICATION_TYPE":"U","NORAD_CAT_ID":36558,"ELEMENT_SET_NO":999,"REV_AT_EPOCH":86871,"BSTAR":0.00069031882,"MEAN_MOTION_DOT":3.029e-5,"MEAN_MOTION_DDOT":0},{"OBJECT_NAME":"COSMOS 2251 DEB","OBJECT_ID":"1993-036BDV","EPOCH":"2026-04-02T15:56:52.437120","MEAN_MOTION":13.97067937,"ECCENTRICITY":0.02603654,"INCLINATION":74.1274,"RA_OF_ASC_NODE":179.914,"ARG_OF_PERICENTER":187.1741,"MEAN_ANOMALY":172.5641,"EPHEMERIS_TYPE":0,"CLASSIFICATION_TYPE":"U","NORAD_CAT_ID":36559,"ELEMENT_SET_NO":999,"REV_AT_EPOCH":82642,"BSTAR":0.004438215,"MEAN_MOTION_DOT":8.242e-5,"MEAN_MOTION_DDOT":0},{"OBJECT_NAME":"COSMOS 2251 DEB","OBJECT_ID":"1993-036BEC","EPOCH":"2026-04-04T08:07:32.902464","MEAN_MOTION":14.61942265,"ECCENTRICITY":0.00138437,"INCLINATION":74.0226,"RA_OF_ASC_NODE":319.1487,"ARG_OF_PERICENTER":2.1185,"MEAN_ANOMALY":358.0038,"EPHEMERIS_TYPE":0,"CLASSIFICATION_TYPE":"U","NORAD_CAT_ID":36614,"ELEMENT_SET_NO":999,"REV_AT_EPOCH":67257,"BSTAR":0.0018270225,"MEAN_MOTION_DOT":9.144e-5,"MEAN_MOTION_DDOT":0},{"OBJECT_NAME":"COSMOS 2251 DEB","OBJECT_ID":"1993-036BEL","EPOCH":"2026-04-05T05:35:58.362432","MEAN_MOTION":14.77353897,"ECCENTRICITY":0.00659013,"INCLINATION":74.0122,"RA_OF_ASC_NODE":282.7257,"ARG_OF_PERICENTER":29.213,"MEAN_ANOMALY":331.2704,"EPHEMERIS_TYPE":0,"CLASSIFICATION_TYPE":"U","NORAD_CAT_ID":36622,"ELEMENT_SET_NO":999,"REV_AT_EPOCH":68425,"BSTAR":0.00071022851,"MEAN_MOTION_DOT":5.201e-5,"MEAN_MOTION_DDOT":0},{"OBJECT_NAME":"COSMOS 2251 DEB","OBJECT_ID":"1993-036BEW","EPOCH":"2026-04-01T17:18:01.231776","MEAN_MOTION":14.4378626,"ECCENTRICITY":0.00340945,"INCLINATION":73.9983,"RA_OF_ASC_NODE":87.563,"ARG_OF_PERICENTER":176.4514,"MEAN_ANOMALY":183.6892,"EPHEMERIS_TYPE":0,"CLASSIFICATION_TYPE":"U","NORAD_CAT_ID":36632,"ELEMENT_SET_NO":999,"REV_AT_EPOCH":66802,"BSTAR":0.00071094983,"MEAN_MOTION_DOT":2.41e-5,"MEAN_MOTION_DDOT":0},{"OBJECT_NAME":"COSMOS 2251 DEB","OBJECT_ID":"1993-036BFE","EPOCH":"2026-04-05T05:30:53.127648","MEAN_MOTION":15.02980755,"ECCENTRICITY":0.00929336,"INCLINATION":74.0262,"RA_OF_ASC_NODE":289.9044,"ARG_OF_PERICENTER":339.0123,"MEAN_ANOMALY":20.7259,"EPHEMERIS_TYPE":0,"CLASSIFICATION_TYPE":"U","NORAD_CAT_ID":37084,"ELEMENT_SET_NO":999,"REV_AT_EPOCH":67971,"BSTAR":0.00050428431,"MEAN_MOTION_DOT":7.416e-5,"MEAN_MOTION_DDOT":0},{"OBJECT_NAME":"COSMOS 2251 DEB","OBJECT_ID":"1993-036BFK","EPOCH":"2026-04-05T06:23:13.871328","MEAN_MOTION":14.55601859,"ECCENTRICITY":0.01294425,"INCLINATION":74.0354,"RA_OF_ASC_NODE":290.9988,"ARG_OF_PERICENTER":3.4454,"MEAN_ANOMALY":356.7568,"EPHEMERIS_TYPE":0,"CLASSIFICATION_TYPE":"U","NORAD_CAT_ID":37089,"ELEMENT_SET_NO":999,"REV_AT_EPOCH":67760,"BSTAR":0.0017054924,"MEAN_MOTION_DOT":8.31e-5,"MEAN_MOTION_DDOT":0},{"OBJECT_NAME":"COSMOS 2251 DEB","OBJECT_ID":"1993-036BFQ","EPOCH":"2026-04-01T18:55:14.977920","MEAN_MOTION":14.38519116,"ECCENTRICITY":0.00833035,"INCLINATION":74.108,"RA_OF_ASC_NODE":279.2913,"ARG_OF_PERICENTER":216.3134,"MEAN_ANOMALY":143.2351,"EPHEMERIS_TYPE":0,"CLASSIFICATION_TYPE":"U","NORAD_CAT_ID":37094,"ELEMENT_SET_NO":999,"REV_AT_EPOCH":86088,"BSTAR":0.00090006629,"MEAN_MOTION_DOT":2.839e-5,"MEAN_MOTION_DDOT":0},{"OBJECT_NAME":"COSMOS 2251 DEB","OBJECT_ID":"1993-036BFR","EPOCH":"2026-04-04T10:23:49.897824","MEAN_MOTION":14.04010187,"ECCENTRICITY":0.01923868,"INCLINATION":73.8485,"RA_OF_ASC_NODE":351.3213,"ARG_OF_PERICENTER":29.528,"MEAN_ANOMALY":331.6555,"EPHEMERIS_TYPE":0,"CLASSIFICATION_TYPE":"U","NORAD_CAT_ID":37095,"ELEMENT_SET_NO":999,"REV_AT_EPOCH":64217,"BSTAR":0.0024424313,"MEAN_MOTION_DOT":4.53e-5,"MEAN_MOTION_DDOT":0},{"OBJECT_NAME":"COSMOS 2251 DEB","OBJECT_ID":"1993-036BFX","EPOCH":"2026-03-14T13:16:36.935328","MEAN_MOTION":14.66387093,"ECCENTRICITY":0.00424934,"INCLINATION":74.0313,"RA_OF_ASC_NODE":276.9889,"ARG_OF_PERICENTER":338.876,"MEAN_ANOMALY":21.0652,"EPHEMERIS_TYPE":0,"CLASSIFICATION_TYPE":"U","NORAD_CAT_ID":37101,"ELEMENT_SET_NO":999,"REV_AT_EPOCH":67017,"BSTAR":0.00093342466,"MEAN_MOTION_DOT":5.201e-5,"MEAN_MOTION_DDOT":0},{"OBJECT_NAME":"COSMOS 2251 DEB","OBJECT_ID":"1993-036BGE","EPOCH":"2026-04-04T18:42:16.875072","MEAN_MOTION":14.42234507,"ECCENTRICITY":0.00919623,"INCLINATION":74.0432,"RA_OF_ASC_NODE":231.1444,"ARG_OF_PERICENTER":279.4652,"MEAN_ANOMALY":79.6118,"EPHEMERIS_TYPE":0,"CLASSIFICATION_TYPE":"U","NORAD_CAT_ID":37108,"ELEMENT_SET_NO":999,"REV_AT_EPOCH":87136,"BSTAR":0.0014843377,"MEAN_MOTION_DOT":5.123e-5,"MEAN_MOTION_DDOT":0},{"OBJECT_NAME":"COSMOS 2251 DEB","OBJECT_ID":"1993-036BGQ","EPOCH":"2026-04-05T01:42:40.244832","MEAN_MOTION":14.81927054,"ECCENTRICITY":0.00046741,"INCLINATION":74.0172,"RA_OF_ASC_NODE":219.8466,"ARG_OF_PERICENTER":278.7552,"MEAN_ANOMALY":81.3096,"EPHEMERIS_TYPE":0,"CLASSIFICATION_TYPE":"U","NORAD_CAT_ID":37118,"ELEMENT_SET_NO":999,"REV_AT_EPOCH":67228,"BSTAR":0.0024487361,"MEAN_MOTION_DOT":0.00019424,"MEAN_MOTION_DDOT":0},{"OBJECT_NAME":"COSMOS 2251 DEB","OBJECT_ID":"1993-036BGY","EPOCH":"2026-03-28T10:16:18.567552","MEAN_MOTION":14.73425876,"ECCENTRICITY":0.01215018,"INCLINATION":73.9511,"RA_OF_ASC_NODE":147.4478,"ARG_OF_PERICENTER":359.4265,"MEAN_ANOMALY":0.6747,"EPHEMERIS_TYPE":0,"CLASSIFICATION_TYPE":"U","NORAD_CAT_ID":37126,"ELEMENT_SET_NO":999,"REV_AT_EPOCH":9655,"BSTAR":0.00016364548,"MEAN_MOTION_DOT":1.155e-5,"MEAN_MOTION_DDOT":0},{"OBJECT_NAME":"COSMOS 2251 DEB","OBJECT_ID":"1993-036BHE","EPOCH":"2026-04-03T01:01:27.167520","MEAN_MOTION":14.79771406,"ECCENTRICITY":0.00404551,"INCLINATION":74.0045,"RA_OF_ASC_NODE":14.7607,"ARG_OF_PERICENTER":147.349,"MEAN_ANOMALY":213.02,"EPHEMERIS_TYPE":0,"CLASSIFICATION_TYPE":"U","NORAD_CAT_ID":37132,"ELEMENT_SET_NO":999,"REV_AT_EPOCH":64061,"BSTAR":0.001861379,"MEAN_MOTION_DOT":0.00014198,"MEAN_MOTION_DDOT":0},{"OBJECT_NAME":"COSMOS 2251 DEB","OBJECT_ID":"1993-036BHJ","EPOCH":"2026-04-05T02:54:02.215008","MEAN_MOTION":13.60887683,"ECCENTRICITY":0.03922973,"INCLINATION":73.935,"RA_OF_ASC_NODE":150.6986,"ARG_OF_PERICENTER":142.6181,"MEAN_ANOMALY":220.293,"EPHEMERIS_TYPE":0,"CLASSIFICATION_TYPE":"U","NORAD_CAT_ID":37270,"ELEMENT_SET_NO":999,"REV_AT_EPOCH":78611,"BSTAR":0.0021061658,"MEAN_MOTION_DOT":2.641e-5,"MEAN_MOTION_DDOT":0},{"OBJECT_NAME":"COSMOS 2251 DEB","OBJECT_ID":"1993-036BHS","EPOCH":"2026-03-31T12:15:26.154432","MEAN_MOTION":14.15670355,"ECCENTRICITY":0.02988854,"INCLINATION":73.7853,"RA_OF_ASC_NODE":152.938,"ARG_OF_PERICENTER":316.1456,"MEAN_ANOMALY":103.4614,"EPHEMERIS_TYPE":0,"CLASSIFICATION_TYPE":"U","NORAD_CAT_ID":37278,"ELEMENT_SET_NO":999,"REV_AT_EPOCH":65368,"BSTAR":0.0011011777,"MEAN_MOTION_DOT":3.303e-5,"MEAN_MOTION_DDOT":0}]
